OBJECT_NAME,OBJECT_ID,EPOCH,MEAN_MOTION,ECCENTRICITY,INCLINATION,RA_OF_ASC_NODE,ARG_OF_PERICENTER,MEAN_ANOMALY,EPHEMERIS_TYPE,CLASSIFICATION_TYPE,NORAD_CAT_ID,ELEMENT_SET_NO,REV_AT_EPOCH,BSTAR,MEAN_MOTION_DOT,MEAN_MOTION_DDOT
INTELSAT 21 (IS-21),2012-045A,2026-06-11T12:58:09.753024,1.00272424,.00013214,0.0188,289.0635,163.5253,303.8368,0,U,38749,999,5046,0,-.268E-5,0
INTELSAT 23 (IS-23),2012-057A,2026-06-11T08:58:38.870400,1.00268413,.0000038,0.0140,307.2279,196.2343,197.9213,0,U,38867,999,4989,0,-.268E-5,0
FM-6,2013-058A,2026-06-10T22:01:38.563680,1.00268329,.00016818,0.0114,47.7834,116.7333,308.7742,0,U,39360,999,4601,0,.2E-7,0
INTELSAT 30 (IS-30),2014-062A,2026-06-11T12:47:33.270144,1.00278036,.00012556,0.0275,49.3152,328.5516,338.8417,0,U,40271,999,673,0,-.135E-5,0
DIRECTV 14,2014-078B,2026-06-10T06:23:38.662080,1.00270829,.00001882,0.0092,5.4718,266.0574,343.7738,0,U,40333,999,4197,0,-.108E-5,0
DIRECTV 15,2015-026A,2026-06-11T12:45:25.973568,1.00269312,.00006251,0.0180,7.0171,277.8273,63.5158,0,U,40663,999,4040,0,-.85E-6,0
SKY MEXICO-1,2015-026B,2026-06-11T12:52:17.815584,1.00270302,.00020925,0.0185,327.3821,135.5940,271.1791,0,U,40664,999,4039,0,-.217E-5,0
INTELSAT 34 (IS-34),2015-039A,2026-06-11T07:50:51.821088,1.00269705,.00003198,0.0095,328.8375,355.2995,357.7670,0,U,40874,999,3957,0,-.268E-5,0
INTELSAT 31 (IS-31),2016-035A,2026-06-10T23:06:22.064832,1.00269494,.00010634,0.0140,270.6422,328.4600,271.7540,0,U,41581,999,3662,0,-.133E-5,0
INTELSAT 36 (IS-36),2016-053A,2026-06-11T13:34:12.239616,1.00270485,.00018308,0.0131,10.8685,320.6666,200.4136,0,U,41747,999,3590,0,-.7E-7,0
INTELSAT 32E (IS-32E),2017-007B,2026-06-11T06:10:21.113184,1.00268917,.00005341,0.0031,63.2625,226.5375,19.2132,0,U,41945,999,3416,0,-.252E-5,0
INTELSAT 35E (IS-35E),2017-041A,2026-06-11T09:32:33.614592,1.00270589,.00016783,0.0188,325.5986,111.0010,291.8096,0,U,42818,999,3275,0,-.221E-5,0
INTELSAT 37E (IS-37E),2017-059A,2026-06-11T06:18:55.622592,1.00269936,.00023819,0.0178,11.8435,91.1558,233.3384,0,U,42950,999,3200,0,-.124E-5,0
AZERSPACE 2 (IS-38),2018-074A,2026-06-11T03:11:40.360992,1.00271976,.00011981,0.0036,69.3548,12.8510,270.3100,0,U,43632,999,2838,0,.154E-5,0
HORIZONS-3E,2018-074B,2026-06-09T03:52:26.934240,1.00270197,.0000957,0.0093,158.1609,124.5481,201.9406,0,U,43633,999,2826,0,-.14E-6,0
AT&T T-16,2019-034A,2026-06-09T16:16:49.046880,1.00268740,.00006409,0.0247,68.1337,190.5571,142.7032,0,U,44333,999,2555,0,-.98E-6,0
INTELSAT 39 (IS-39),2019-049B,2026-06-10T22:34:08.694624,1.00269836,.00010821,0.0255,336.9481,329.3092,353.5144,0,U,44476,999,2506,0,0,0
GALAXY 30 (G-30),2020-056C,2026-06-11T09:46:38.851968,1.00273404,.0001944,0.0017,357.0112,77.5372,206.8848,0,U,46114,999,2123,0,.53E-6,0
GALAXY 33 (G-33),2022-128A,2026-06-11T12:36:49.298976,1.00271888,.00017326,0.0076,328.1103,119.2782,228.7054,0,U,54026,999,1368,0,.96E-6,0
GALAXY 34 (G-34),2022-128B,2026-06-11T00:22:38.637408,1.00274952,.00017302,0.0211,339.9576,128.3812,27.7038,0,U,54027,999,1385,0,0,0
GALAXY 31 (G-31),2022-153A,2026-06-10T22:58:52.783104,1.00272181,.00011913,0.0159,295.5589,143.3346,44.1475,0,U,54243,999,707,0,.3E-6,0
GALAXY 32 (G-32),2022-153B,2026-06-11T07:40:45.289632,1.00268737,.00016771,0.0174,6.3520,121.7607,155.7345,0,U,54244,999,1308,0,0,0
GALAXY 35 (G-35),2022-170A,2026-06-11T12:48:10.709856,1.00270853,.0001894,0.0154,296.6572,146.8872,275.2814,0,U,54741,999,1283,0,-.145E-5,0
GALAXY 36 (G-36),2022-170B,2026-06-11T12:49:18.102720,1.00271688,.00025643,0.0359,125.9311,316.5219,280.7569,0,U,54742,999,1271,0,-.168E-5,0
GALAXY 37 (G-37),2023-112A,2026-06-11T14:21:10.130688,1.00270588,.00018291,0.0167,11.7089,67.1784,269.3503,0,U,57493,999,1048,0,.65E-6,0
